[{"OBJECT_NAME":"STARLINK-4790","OBJECT_ID":"2022-114AT","EPOCH":"2026-03-09T20:50:20.095296","MEAN_MOTION":15.08839785,"ECCENTRICITY":0.00013972,"INCLINATION":53.2173,"RA_OF_ASC_NODE":287.9796,"ARG_OF_PERICENTER":79.9977,"MEAN_ANOMALY":280.1173,"EPHEMERIS_TYPE":0,"CLASSIFICATION_TYPE":"U","NORAD_CAT_ID":53859,"ELEMENT_SET_NO":999,"REV_AT_EPOCH":19307,"BSTAR":3.6957879e-5,"MEAN_MOTION_DOT":3.0e-6,"MEAN_MOTION_DDOT":0},{"OBJECT_NAME":"MUSAT-2","OBJECT_ID":"2024-043B","EPOCH":"2026-03-09T22:04:01.255008","MEAN_MOTION":15.07177436,"ECCENTRICITY":0.0006495,"INCLINATION":97.8438,"RA_OF_ASC_NODE":205.4399,"ARG_OF_PERICENTER":314.3478,"MEAN_ANOMALY":45.7216,"EPHEMERIS_TYPE":0,"CLASSIFICATION_TYPE":"U","NORAD_CAT_ID":59099,"ELEMENT_SET_NO":999,"REV_AT_EPOCH":11013,"BSTAR":0.00067214198,"MEAN_MOTION_DOT":0.00010059,"MEAN_MOTION_DDOT":0}]
